[Satellite]
VERSION=1.1
NAME=RS28S (SXC3-214 MIET-A*)
NICKNAME=RS28S (SXC3-214 MIET-A*)
TLE1=1 53377U 22096H   22342.52737712  .00010861  00000+0  41209-3 0  9995
TLE2=2 53377  97.4289 243.2262 0003531  84.7573  19.1935 15.27023471 18484
STATUS=0
